{"type": "FeatureCollection", "features": [ {"type": "Feature", "properties": {"norad_id": 37834, "name": "INTELSAT 18 (IS-18)", "group": "intelsat", "lat": 0.0019158933345916368, "lon": -15.916170360037881, "alt_km": 35784.90250584535, "timestamp": "2025-12-09T05:43:20.395750+00:00", "meta": {"OBJECT_NAME": "INTELSAT 18 (IS-18)", "OBJECT_ID": "2011-056A", "EPOCH": "2025-12-08T17:53:00.642912", "MEAN_MOTION": 1.00271048, "ECCENTRICITY": 0.0002091, "INCLINATION": 0.0172, "RA_OF_ASC_NODE": 340.7761, "ARG_OF_PERICENTER": 282.0836, "MEAN_ANOMALY": 263.1367, "EPHEMERIS_TYPE": 0, "CLASSIFICATION_TYPE": "U", "NORAD_CAT_ID": 37834, "ELEMENT_SET_NO": 999, "REV_AT_EPOCH": 5190, "BSTAR": 0, "MEAN_MOTION_DOT": 5.5e-07, "MEAN_MOTION_DDOT": 0}, "tle": {"line1": "1 37834U 11056A   25342.74514633  .00000055  00000+0  00000+0 0  9995", "line2": "2 37834   0.0172 340.7761 0002091 282.0836 263.1367  1.00271048 51902"}}, "geometry": {"type": "Point", "coordinates": [-15.916170360037881, 0.0019158933345916368]}}, {"type": "Feature", "properties": {"norad_id": 38098, "name": "INTELSAT 22 (IS-22)", "group": "intelsat", "lat": -0.03406167578703464, "lon": -123.83044815089055, "alt_km": 35780.039501432286, "timestamp": "2025-12-09T05:43:20.395763+00:00", "meta": {"OBJECT_NAME": "INTELSAT 22 (IS-22)", "OBJECT_ID": "2012-011A", "EPOCH": "2025-12-08T19:04:59.359008", "MEAN_MOTION": 1.00273289, "ECCENTRICITY": 0.0001523, "INCLINATION": 0.018, "RA_OF_ASC_NODE": 305.7155, "ARG_OF_PERICENTER": 319.8627, "MEAN_ANOMALY": 170.5766, "EPHEMERIS_TYPE": 0, "CLASSIFICATION_TYPE": "U", "NORAD_CAT_ID": 38098, "ELEMENT_SET_NO": 999, "REV_AT_EPOCH": 527, "BSTAR": 0, "MEAN_MOTION_DOT": -5.7e-07, "MEAN_MOTION_DDOT": 0}, "tle": {"line1": "1 38098U 12011A   25342.79513147 -.00000057  00000+0  00000+0 0  9997", "line2": "2 38098   0.0180 305.7155 0001523 319.8627 170.5766  1.00273289  5270"}}, "geometry": {"type": "Point", "coordinates": [-123.83044815089055, -0.03406167578703464]}}, {"type": "Feature", "properties": {"norad_id": 38356, "name": "INTELSAT 19 (IS-19)", "group": "intelsat", "lat": -0.0031141027454023645, "lon": -29.895338122973065, "alt_km": 35779.716444552476, "timestamp": "2025-12-09T05:43:20.395775+00:00", "meta": {"OBJECT_NAME": "INTELSAT 19 (IS-19)", "OBJECT_ID": "2012-030A", "EPOCH": "2025-12-08T20:03:38.651328", "MEAN_MOTION": 1.00271529, "ECCENTRICITY": 0.0003554, "INCLINATION": 0.0098, "RA_OF_ASC_NODE": 331.8017, "ARG_OF_PERICENTER": 293.6359, "MEAN_ANOMALY": 279.3134, "EPHEMERIS_TYPE": 0, "CLASSIFICATION_TYPE": "U", "NORAD_CAT_ID": 38356, "ELEMENT_SET_NO": 999, "REV_AT_EPOCH": 4854, "BSTAR": 0, "MEAN_MOTION_DOT": -5.4e-07, "MEAN_MOTION_DDOT": 0}, "tle": {"line1": "1 38356U 12030A   25342.83586402 -.00000054  00000+0  00000+0 0  9991", "line2": "2 38356   0.0098 331.8017 0003554 293.6359 279.3134  1.00271529 48548"}}, "geometry": {"type": "Point", "coordinates": [-29.895338122973065, -0.0031141027454023645]}}, {"type": "Feature", "properties": {"norad_id": 38740, "name": "INTELSAT 20 (IS-20)", "group": "intelsat", "lat": -0.0028686979343836797, "lon": -127.38981559328278, "alt_km": 35778.65600494475, "timestamp": "2025-12-09T05:43:20.395787+00:00", "meta": {"OBJECT_NAME": "INTELSAT 20 (IS-20)", "OBJECT_ID": "2012-043A", "EPOCH": "2025-12-08T10:30:17.553024", "MEAN_MOTION": 1.00273639, "ECCENTRICITY": 0.0002741, "INCLINATION": 0.0021, "RA_OF_ASC_NODE": 74.2164, "ARG_OF_PERICENTER": 104.9934, "MEAN_ANOMALY": 124.3222, "EPHEMERIS_TYPE": 0, "CLASSIFICATION_TYPE": "U", "NORAD_CAT_ID": 38740, "ELEMENT_SET_NO": 999, "REV_AT_EPOCH": 4883, "BSTAR": 0, "MEAN_MOTION_DOT": -2.3e-07, "MEAN_MOTION_DDOT": 0}, "tle": {"line1": "1 38740U 12043A   25342.43770316 -.00000023  00000+0  00000+0 0  9993", "line2": "2 38740   0.0021  74.2164 0002741 104.9934 124.3222  1.00273639 48835"}}, "geometry": {"type": "Point", "coordinates": [-127.38981559328278, -0.0028686979343836797]}}, {"type": "Feature", "properties": {"norad_id": 38749, "name": "INTELSAT 21 (IS-21)", "group": "intelsat", "lat": 0.03209660166344635, "lon": 106.05317926901664, "alt_km": 35794.34657201123, "timestamp": "2025-12-09T05:43:20.395799+00:00", "meta": {"OBJECT_NAME": "INTELSAT 21 (IS-21)", "OBJECT_ID": "2012-045A", "EPOCH": "2025-12-08T18:27:55.410048", "MEAN_MOTION": 1.00270578, "ECCENTRICITY": 0.0002188, "INCLINATION": 0.0147, "RA_OF_ASC_NODE": 13.438, "ARG_OF_PERICENTER": 240.7747, "MEAN_ANOMALY": 42.5431, "EPHEMERIS_TYPE": 0, "CLASSIFICATION_TYPE": "U", "NORAD_CAT_ID": 38749, "ELEMENT_SET_NO": 999, "REV_AT_EPOCH": 4861, "BSTAR": 0, "MEAN_MOTION_DOT": -2.83e-06, "MEAN_MOTION_DDOT": 0}, "tle": {"line1": "1 38749U 12045A   25342.76939132 -.00000283  00000+0  00000+0 0  9991", "line2": "2 38749   0.0147  13.4380 0002188 240.7747  42.5431  1.00270578 48612"}}, "geometry": {"type": "Point", "coordinates": [106.05317926901664, 0.03209660166344635]}}, {"type": "Feature", "properties": {"norad_id": 38867, "name": "INTELSAT 23 (IS-23)", "group": "intelsat", "lat": 0.027901171180803694, "lon": 111.0247607274698, "alt_km": 35788.57928062197, "timestamp": "2025-12-09T05:43:20.395811+00:00", "meta": {"OBJECT_NAME": "INTELSAT 23 (IS-23)", "OBJECT_ID": "2012-057A", "EPOCH": "2025-12-08T18:29:17.777760", "MEAN_MOTION": 1.00261029, "ECCENTRICITY": 0.0002051, "INCLINATION": 0.0412, "RA_OF_ASC_NODE": 93.7386, "ARG_OF_PERICENTER": 103.2947, "MEAN_ANOMALY": 105.0644, "EPHEMERIS_TYPE": 0, "CLASSIFICATION_TYPE": "U", "NORAD_CAT_ID": 38867, "ELEMENT_SET_NO": 999, "REV_AT_EPOCH": 4804, "BSTAR": 0, "MEAN_MOTION_DOT": -2.83e-06, "MEAN_MOTION_DDOT": 0}, "tle": {"line1": "1 38867U 12057A   25342.77034465 -.00000283  00000+0  00000+0 0  9991", "line2": "2 38867   0.0412  93.7386 0002051 103.2947 105.0644  1.00261029 48048"}}, "geometry": {"type": "Point", "coordinates": [111.0247607274698, 0.027901171180803694]}}, {"type": "Feature", "properties": {"norad_id": 39360, "name": "FM-6", "group": "intelsat", "lat": 0.0039165441864538585, "lon": 47.88107877172813, "alt_km": 35794.769177448965, "timestamp": "2025-12-09T05:43:20.395823+00:00", "meta": {"OBJECT_NAME": "FM-6", "OBJECT_ID": "2013-058A", "EPOCH": "2025-12-08T13:15:20.428992", "MEAN_MOTION": 1.0026711, "ECCENTRICITY": 0.000319, "INCLINATION": 0.0119, "RA_OF_ASC_NODE": 96.1147, "ARG_OF_PERICENTER": 75.3013, "MEAN_ANOMALY": 348.8342, "EPHEMERIS_TYPE": 0, "CLASSIFICATION_TYPE": "U", "NORAD_CAT_ID": 39360, "ELEMENT_SET_NO": 999, "REV_AT_EPOCH": 4416, "BSTAR": 0, "MEAN_MOTION_DOT": -1.4e-07, "MEAN_MOTION_DDOT": 0}, "tle": {"line1": "1 39360U 13058A   25342.55231978 -.00000014  00000+0  00000+0 0  9998", "line2": "2 39360   0.0119  96.1147 0003190  75.3013 348.8342  1.00267110 44169"}}, "geometry": {"type": "Point", "coordinates": [47.88107877172813, 0.0039165441864538585]}}, {"type": "Feature", "properties": {"norad_id": 40271, "name": "INTELSAT 30 (IS-30)", "group": "intelsat", "lat": 0.029355996932770818, "lon": 69.00303556773737, "alt_km": 35781.52496029169, "timestamp": "2025-12-09T05:43:20.395834+00:00", "meta": {"OBJECT_NAME": "INTELSAT 30 (IS-30)", "OBJECT_ID": "2014-062A", "EPOCH": "2025-12-08T12:25:08.959584", "MEAN_MOTION": 1.0027093, "ECCENTRICITY": 0.00012019, "INCLINATION": 0.0126, "RA_OF_ASC_NODE": 12.2657, "ARG_OF_PERICENTER": 75.3577, "MEAN_ANOMALY": 81.1316, "EPHEMERIS_TYPE": 0, "CLASSIFICATION_TYPE": "U", "NORAD_CAT_ID": 40271, "ELEMENT_SET_NO": 999, "REV_AT_EPOCH": 487, "BSTAR": 0, "MEAN_MOTION_DOT": -1.48e-06, "MEAN_MOTION_DDOT": 0}, "tle": {"line1": "1 40271U 14062A   25342.51746481 -.00000148  00000+0  00000+0 0  9991", "line2": "2 40271   0.0126  12.2657 0001201  75.3577  81.1316  1.00270930  4877"}}, "geometry": {"type": "Point", "coordinates": [69.00303556773737, 0.029355996932770818]}}, {"type": "Feature", "properties": {"norad_id": 40333, "name": "DIRECTV 14", "group": "intelsat", "lat": 0.037049413928870026, "lon": 64.84592009550391, "alt_km": 35787.67094897231, "timestamp": "2025-12-09T05:43:20.395864+00:00", "meta": {"OBJECT_NAME": "DIRECTV 14", "OBJECT_ID": "2014-078B", "EPOCH": "2025-12-08T14:50:30.133248", "MEAN_MOTION": 1.00271822, "ECCENTRICITY": 4.72e-05, "INCLINATION": 0.0167, "RA_OF_ASC_NODE": 332.654, "ARG_OF_PERICENTER": 234.9595, "MEAN_ANOMALY": 353.4187, "EPHEMERIS_TYPE": 0, "CLASSIFICATION_TYPE": "U", "NORAD_CAT_ID": 40333, "ELEMENT_SET_NO": 999, "REV_AT_EPOCH": 4013, "BSTAR": 0, "MEAN_MOTION_DOT": -1.23e-06, "MEAN_MOTION_DDOT": 0}, "tle": {"line1": "1 40333U 14078B   25342.61840432 -.00000123  00000+0  00000+0 0  9992", "line2": "2 40333   0.0167 332.6540 0000472 234.9595 353.4187  1.00271822 40134"}}, "geometry": {"type": "Point", "coordinates": [64.84592009550391, 0.037049413928870026]}}, {"type": "Feature", "properties": {"norad_id": 40663, "name": "DIRECTV 15", "group": "intelsat", "lat": 0.009377447976333636, "lon": 61.200323532484596, "alt_km": 35787.89258160375, "timestamp": "2025-12-09T05:43:20.395879+00:00", "meta": {"OBJECT_NAME": "DIRECTV 15", "OBJECT_ID": "2015-026A", "EPOCH": "2025-12-08T14:49:37.716096", "MEAN_MOTION": 1.0026899, "ECCENTRICITY": 3.15e-05, "INCLINATION": 0.0368, "RA_OF_ASC_NODE": 78.2463, "ARG_OF_PERICENTER": 203.1344, "MEAN_ANOMALY": 275.7875, "EPHEMERIS_TYPE": 0, "CLASSIFICATION_TYPE": "U", "NORAD_CAT_ID": 40663, "ELEMENT_SET_NO": 999, "REV_AT_EPOCH": 3855, "BSTAR": 0, "MEAN_MOTION_DOT": -1e-06, "MEAN_MOTION_DDOT": 0}, "tle": {"line1": "1 40663U 15026A   25342.61779764 -.00000100  00000+0  00000+0 0  9996", "line2": "2 40663   0.0368  78.2463 0000315 203.1344 275.7875  1.00268990 38551"}}, "geometry": {"type": "Point", "coordinates": [61.200323532484596, 0.009377447976333636]}}]}